[{"OBJECT_NAME":"PELICAN-6","OBJECT_ID":"2025-276AP","EPOCH":"2026-03-09T16:58:12.890496","MEAN_MOTION":15.2637798,"ECCENTRICITY":0.0003569,"INCLINATION":97.4276,"RA_OF_ASC_NODE":144.2072,"ARG_OF_PERICENTER":157.8575,"MEAN_ANOMALY":202.2819,"EPHEMERIS_TYPE":0,"CLASSIFICATION_TYPE":"U","NORAD_CAT_ID":66703,"ELEMENT_SET_NO":999,"REV_AT_EPOCH":1533,"BSTAR":0.0029725783,"MEAN_MOTION_DOT":0.00077979,"MEAN_MOTION_DDOT":0},{"OBJECT_NAME":"STARLINK-36441","OBJECT_ID":"2026-008AA","EPOCH":"2026-03-09T14:12:07.041024","MEAN_MOTION":15.27568643,"ECCENTRICITY":0.0001634,"INCLINATION":42.9987,"RA_OF_ASC_NODE":206.0758,"ARG_OF_PERICENTER":278.6295,"MEAN_ANOMALY":81.4372,"EPHEMERIS_TYPE":0,"CLASSIFICATION_TYPE":"U","NORAD_CAT_ID":67469,"ELEMENT_SET_NO":999,"REV_AT_EPOCH":955,"BSTAR":0.00085882,"MEAN_MOTION_DOT":0.00023438,"MEAN_MOTION_DDOT":0}]
